{
"type": "FeatureCollection",
"name": "municipios_fallback",
"crs": { "type": "name", "properties": { "name": "urn:ogc:def:crs:OGC:1.3:CRS84" } },
"features": [
{ "type": "Feature", "properties": { "municipio": "Lisboa", "distrito": "Lisboa", "dicofre": "1106", "area_km2": 100.05 }, "geometry": { "type": "Polygon", "coordinates": [ [ [ -9.235, 38.705 ], [ -9.135, 38.705 ], [ -9.135, 38.775 ], [ -9.235, 38.775 ], [ -9.235, 38.705 ] ] ] } },
{ "type": "Feature", "properties": { "municipio": "Porto", "distrito": "Porto", "dicofre": "1312", "area_km2": 41.42 }, "geometry": { "type": "Polygon", "coordinates": [ [ [ -8.68, 41.14 ], [ -8.58, 41.14 ], [ -8.58, 41.18 ], [ -8.68, 41.18 ], [ -8.68, 41.14 ] ] ] } }
]
}
